#dP2024  6 13  0  0  0.00000000      96 __u+U IGS20 EXT  IAC
## 2318 345600.00000000   900.00000000 60474 0.0000000000000
+   54   G02G03G04G05G06G07G08G09G10G11G12G13G14G15G16G17G18
+        G19G20G21G22G23G24G25G26G27G28G29G30G31G32R01R02R03
+        R04R05R07R08R09R11R12R13R14R15R16R17R18R19R20R21R22
+        R24R25R26  0  0  0  0  0  0  0  0  0  0  0  0  0  0
+          0  0  0  0  0  0  0  0  0  0  0  0  0  0  0  0  0
++         7  7  8  8  8  9  8  8  9  9  8  7  7  8  8  8  9
++         8  9  7  8  9  9  8  7  9  8  8  8  7  8  9  9  9
++         9  9  8  9  7  8  8  9  8  8  8  8  8  9  9  7  8
++         9  9  9  0  0  0  0  0  0  0  0  0  0  0  0  0  0
++         0  0  0  0  0  0  0  0  0  0  0  0  0  0  0  0  0
%c M  cc GPS ccc cccc cccc cccc cccc ccccc ccccc ccccc ccccc
%c cc cc ccc ccc cccc cccc cccc cccc ccccc ccccc ccccc ccccc
%f  0.0000000  0.000000000  0.00000000000  0.000000000000000
%f  0.0000000  0.000000000  0.00000000000  0.000000000000000
%i    0    0    0    0      0      0      0      0         0
%i    0    0    0    0      0      0      0      0         0
/* IAC                                ULTRA-RAPID PREDICTION
/* S/V CLOCKS ARE ALIGNED TO GNSS TIME                      
/* G:C1WC2W R:C1PC2P E:C1XC5X C:C2IC6I J:C1CC2S             
/* PCV:IGS20_2317 OL/AL:FES2004  NONE     YN ORB:CoN CLK:CoN
*  2024 06 13  0 30  0.00000000
PG02 -14192.830029   7814.425163  21470.952027   -418.805253
PG03 -23183.569538  12797.334361    647.681531    410.708635
PG04 -18589.624861   3637.784259 -18656.762759    381.933798
PG05  21974.362262  -1945.036209 -15034.604180   -176.114797
PG06   5408.386657  24408.391481  -8742.059065    221.787260
PG07  -6088.404179  23962.032021  -8527.900936    -94.746827
PG08 -24173.958039  -4381.852136  10508.543193    226.883434
PG09  -7260.649934  13466.333404 -21793.013002    232.508856
PG10   -789.507813 -15934.787158  21378.901563    -41.646804
PG11  12242.614067  14396.937433 -18663.105462   -684.173658
PG12  24394.301223 -10082.279594   2410.221811   -513.595661
PG13  22475.782953  13537.245149   4667.311854    657.502085
PG14  -3426.914743  17803.339432  19375.988308    424.010846
PG15  24447.407245   1568.628947   9994.616816    169.504398
PG16 -20759.915362  -3244.371135 -16838.037460   -265.904601
PG17   6123.132826  18860.574053  18010.398779    695.380797
PG18   6138.560562 -24318.186920  -8410.356062   -624.139994
PG19  14784.949647  19602.682996  10448.562800    495.595932
PG20  15940.080310   5491.379950 -20429.544337    373.902526
PG21 -15379.762901    959.129265  22066.250805    115.830475
PG22   4456.270310  14859.378608  21994.624217    -26.517742
PG23  11404.990718 -18737.676787  14854.487659    248.897187
PG24  14903.928954  -5638.897062  20782.952813   -477.290635
PG25  19375.434841 -16942.167227  -6315.821729    497.255450
PG26 -10401.025386 -12141.537801 -21374.601990    137.928837
PG27 -23363.644986 -13108.032230    130.409157    -27.995336
PG28  -5186.755442 -25300.613783  -6211.441009   -286.242865
PG29  11072.589858 -10489.067031 -21805.079514   -594.480933
PG30   1160.441660  26349.168888   1568.731103   -375.210234
PG31 -10888.663315 -18255.319008 -15892.122228   -227.422749
PG32  -9715.697072 -18679.084167  16523.138156   -616.396775
PR01  -8986.573642 -11160.417630  21100.861521     88.216287
PR02 -22656.809844  -7801.001752   8880.746177    -23.252687
PR03 -24036.979862    465.431199  -8558.009893    101.962553
PR04 -12243.927244   7839.468865 -20931.117621    240.813296
PR05   6019.891493  11291.560394 -22049.710584    132.995548
PR07  23674.542396   -903.809630   9435.255879     84.443749
PR08  11885.273996  -8189.944330  21084.877109     -4.901971
PR09  10494.426127   4814.391981  22772.470041    191.894740
PR11  15694.808045 -20121.432971    168.789009     21.604414
PR12   3634.710377 -18200.505183 -17464.520412     41.243167
PR13  -8397.096538  -7217.875068 -22987.476259    -48.294976
PR14 -17555.350646  10828.920308 -14974.147428     26.565094
PR15 -15144.428485  20462.837767   1547.074246     78.873971
PR16  -3770.377880  18239.068855  17423.794713     26.434043
PR17 -11138.819951    332.274256  22942.671336     95.317538
PR18  -3371.372575  16132.026193  19460.138518    146.720348
PR19   4495.218416  23915.656130   7653.401147   -280.107413
PR20  12287.751608  18011.480175 -13205.658117   -114.393812
PR21  11181.218704    159.071218 -22935.252953   -108.771630
PR22   3407.172344 -17120.290989 -18582.757833    103.423319
PR24 -13411.457365 -16947.834948  13544.004872    -59.613973
PR25  11364.308977   -238.678446 -22836.420668    -50.193251
PR26  13165.359250  -7765.657515  20450.855847     -6.438958
*  2024 06 13  0 45  0.00000000
PG02 -14524.477165   5447.786139  22011.399546   -418.798885
PG03 -23067.132519  12495.558814   3544.998098    410.724833
PG04 -20287.200372   2501.359695 -17015.818304    381.941136
PG05  20577.430772   -804.367189 -17002.622902   -176.116024
PG06   5252.736995  25261.875594  -5990.166040    221.768322
PG07  -6427.163345  22768.065840 -11068.951413    -94.737021
PG08 -25028.054364  -5048.498529   7961.955046    226.899955
PG09  -9459.017731  12347.752433 -21615.400559    232.521970
PG10   1244.111912 -17111.976910  20387.545281    -41.654141
PG11  12078.890572  16437.365997 -17018.522983   -684.180985
PG12  24099.147935  -9638.493673   5227.903078   -513.598561
PG13  22670.880893  13935.292864   1835.903891    657.504444
PG14  -5350.762629  18755.969888  17969.443995    424.019086
PG15  25349.618366   2196.376757   7447.168153    169.508151
PG16 -19076.312351  -4233.033686 -18518.876332   -265.895254
PG17   4292.933745  17878.994143  19526.888472    695.375973
PG18   6364.050306 -23204.866304 -11004.651711   -624.144435
PG19  13572.699109  18996.331371  12855.889282    495.600825
PG20  14212.669955   7156.940110 -21185.747998    373.902198
PG21 -15705.310917  -1437.341700  21896.117689    115.828408
PG22   2302.064283  15922.080041  21595.802803    -26.522180
PG23  12807.456274 -19463.993037  12584.586825    248.905447
PG24  15279.077203  -3170.877017  21063.913226   -477.292953
PG25  19980.928098 -16984.806846  -3540.921947    497.255960
PG26  -8443.855900 -13571.112917 -21344.266058    137.923258
PG27 -23161.755568 -13248.597713  -2698.372966    -27.996529
PG28  -4975.153511 -25866.166855  -3426.372625   -286.258028
PG29  13121.424596  -9146.231014 -21275.774662   -594.479449
PG30    811.015045  26363.289212  -1250.346085   -375.204675
PG31 -10690.244033 -19939.127063 -13806.218999   -227.422540
PG32  -7926.977575 -17902.953690  18251.074447   -616.395742
PR01  -6330.065677 -10879.791624  22185.263888     88.217334
PR02 -21421.066852  -7485.550538  11760.828394    -23.252769
PR03 -24922.271940    521.435466  -5495.611433    101.963277
PR04 -14729.402672   7614.384088 -19356.696593    240.814875
PR05   3274.323494  10895.374857 -22815.477523    132.996103
PR07  24658.679819   -940.565239   6409.130469     84.444320
PR08  14372.982454  -7976.307635  19555.552456     -4.902242
PR09   8892.499258   7118.865988  22843.407111    191.896665
PR11  15449.180671 -20032.013963   3369.148869     21.603389
PR12   4756.396220 -19885.372896 -15216.315683     41.243591
PR13  -6768.326070  -9514.297229 -22686.921233    -48.295161
PR14 -16325.041554   9261.206933 -17244.919467     26.565159
PR15 -15035.487073  20530.794114  -1656.746420     78.873694
PR16  -4864.653889  19927.365580  15150.593661     26.434395
PR17 -12267.723439  -2220.707280  22247.728254     95.320613
PR18  -4232.040607  13781.031954  21039.359094    146.722018
PR19   4286.889774  22785.397733  10636.537652   -280.108482
PR20  12975.556699  19314.147997 -10408.209412   -114.394334
PR21  12293.508437   2713.734091 -22196.277475   -108.774435
PR22   4190.305157 -14846.642639 -20296.293050    103.419432
PR24 -14118.224628 -18279.830525  10815.349581    -59.615291
PR25  12378.731202   2347.298449 -22182.156227    -50.221592
PR26  15574.799516  -7587.198358  18754.854200     -6.438208
EOF
